[{"OBJECT_NAME":"OBJECT H","OBJECT_ID":"2024-205H","EPOCH":"2026-03-09T23:10:36.271776","MEAN_MOTION":15.29110994,"ECCENTRICITY":0.00105089,"INCLINATION":97.4168,"RA_OF_ASC_NODE":147.1265,"ARG_OF_PERICENTER":38.7838,"MEAN_ANOMALY":321.4154,"EPHEMERIS_TYPE":0,"CLASSIFICATION_TYPE":"U","NORAD_CAT_ID":61901,"ELEMENT_SET_NO":999,"REV_AT_EPOCH":7354,"BSTAR":0.00059497566,"MEAN_MOTION_DOT":0.00016783,"MEAN_MOTION_DDOT":0},{"OBJECT_NAME":"STARLINK-36418","OBJECT_ID":"2026-005U","EPOCH":"2026-03-09T12:24:33.246144","MEAN_MOTION":15.27602228,"ECCENTRICITY":0.00018181,"INCLINATION":43.0021,"RA_OF_ASC_NODE":238.6486,"ARG_OF_PERICENTER":284.6926,"MEAN_ANOMALY":75.3724,"EPHEMERIS_TYPE":0,"CLASSIFICATION_TYPE":"U","NORAD_CAT_ID":67422,"ELEMENT_SET_NO":999,"REV_AT_EPOCH":867,"BSTAR":0.0009444374,"MEAN_MOTION_DOT":0.00025836,"MEAN_MOTION_DDOT":0}]
